[{"OBJECT_NAME":"CENTISPACE-1 S14","OBJECT_ID":"2025-007J","EPOCH":"2026-03-09T22:41:11.943168","MEAN_MOTION":13.82921817,"ECCENTRICITY":0.00089806,"INCLINATION":54.9841,"RA_OF_ASC_NODE":279.64,"ARG_OF_PERICENTER":292.176,"MEAN_ANOMALY":67.8244,"EPHEMERIS_TYPE":0,"CLASSIFICATION_TYPE":"U","NORAD_CAT_ID":62583,"ELEMENT_SET_NO":999,"REV_AT_EPOCH":6100,"BSTAR":0.00010890491,"MEAN_MOTION_DOT":-2.2e-7,"MEAN_MOTION_DDOT":0},{"OBJECT_NAME":"COSMOS 586","OBJECT_ID":"1973-065A","EPOCH":"2026-03-09T22:36:42.296544","MEAN_MOTION":13.75368743,"ECCENTRICITY":0.00287399,"INCLINATION":82.9382,"RA_OF_ASC_NODE":236.7365,"ARG_OF_PERICENTER":117.462,"MEAN_ANOMALY":353.4128,"EPHEMERIS_TYPE":0,"CLASSIFICATION_TYPE":"U","NORAD_CAT_ID":6828,"ELEMENT_SET_NO":999,"REV_AT_EPOCH":63325,"BSTAR":6.0977555e-5,"MEAN_MOTION_DOT":7.4e-7,"MEAN_MOTION_DDOT":0}]
